{
    "type": "FeatureCollection",
    "features": [
        {
            "type": "Feature",
            "properties": {
                "name": "Ranh giới TP Cần Thơ (shape gốc, không cắt)",
                "description": "Polygon giữ nguyên toàn bộ chuỗi tọa độ, không simplify, dùng cho minh họa báo cáo"
            },
            "geometry": {
                "type": "Polygon",
                "coordinates": [
                    [
                        [
                            105.752706,
                            10.046267
                        ],
                        [
                            105.7545,
                            10.04552
                        ],
                        [
                            105.754669,
                            10.045976
                        ],
                        [
                            105.754864,
                            10.045945
                        ],
                        [
                            105.755117,
                            10.047513
                        ],
                        [
                            105.755338,
                            10.047584
                        ],
                        [
                            105.759411,
                            10.045776
                        ],
                        [
                            105.760598,
                            10.047642
                        ],
                        [
                            105.760634,
                            10.047735
                        ],
                        [
                            105.760629,
                            10.047895
                        ],
                        [
                            105.762813,
                            10.048299
                        ],
                        [
                            105.763431,
                            10.048553
                        ],
                        [
                            105.766778,
                            10.050187
                        ],
                        [
                            105.768172,
                            10.050574
                        ],
                        [
                            105.769863,
                            10.050996
                        ],
                        [
                            105.77003,
                            10.051169
                        ],
                        [
                            105.770111,
                            10.052035
                        ],
                        [
                            105.771735,
                            10.053692
                        ],
                        [
                            105.771338,
                            10.0541
                        ],
                        [
                            105.774053,
                            10.056184
                        ],
                        [
                            105.775598,
                            10.054381
                        ],
                        [
                            105.77605,
                            10.054003
                        ],
                        [
                            105.776135,
                            10.053865
                        ],
                        [
                            105.776167,
                            10.05375
                        ],
                        [
                            105.776266,
                            10.053603
                        ],
                        [
                            105.776316,
                            10.053501
                        ],
                        [
                            105.776483,
                            10.053315
                        ],
                        [
                            105.776771,
                            10.052697
                        ],
                        [
                            105.776934,
                            10.052519
                        ],
                        [
                            105.77724,
                            10.052328
                        ],
                        [
                            105.777331,
                            10.052249
                        ],
                        [
                            105.777682,
                            10.051716
                        ],
                        [
                            105.778057,
                            10.051351
                        ],
                        [
                            105.778218,
                            10.051275
                        ],
                        [
                            105.778491,
                            10.050689
                        ],
                        [
                            105.780071,
                            10.048676
                        ],
                        [
                            105.780236,
                            10.048701
                        ],
                        [
                            105.780336,
                            10.048644
                        ],
                        [
                            105.781304,
                            10.048693
                        ],
                        [
                            105.781552,
                            10.048888
                        ],
                        [
                            105.78185,
                            10.048929
                        ],
                        [
                            105.782123,
                            10.048782
                        ],
                        [
                            105.782296,
                            10.048945
                        ],
                        [
                            105.782371,
                            10.049426
                        ],
                        [
                            105.781257,
                            10.049498
                        ],
                        [
                            105.780514,
                            10.049393
                        ],
                        [
                            105.78036,
                            10.049682
                        ],
                        [
                            105.779202,
                            10.051158
                        ],
                        [
                            105.776306,
                            10.054612
                        ],
                        [
                            105.77072,
                            10.061622
                        ],
                        [
                            105.774705,
                            10.065412
                        ],
                        [
                            105.774682,
                            10.065643
                        ],
                        [
                            105.77532,
                            10.06621
                        ],
                        [
                            105.775562,
                            10.06618
                        ],
                        [
                            105.775826,
                            10.066024
                        ],
                        [
                            105.77592,
                            10.066051
                        ],
                        [
                            105.776779,
                            10.067269
                        ],
                        [
                            105.777441,
                            10.067528
                        ],
                        [
                            105.778153,
                            10.067125
                        ],
                        [
                            105.78093,
                            10.064782
                        ],
                        [
                            105.781327,
                            10.064599
                        ],
                        [
                            105.785893,
                            10.059802
                        ],
                        [
                            105.786825,
                            10.058638
                        ],
                        [
                            105.787075,
                            10.058459
                        ],
                        [
                            105.78762,
                            10.057541
                        ],
                        [
                            105.787939,
                            10.057452
                        ],
                        [
                            105.788302,
                            10.056982
                        ],
                        [
                            105.788348,
                            10.056579
                        ],
                        [
                            105.789075,
                            10.055594
                        ],
                        [
                            105.789257,
                            10.055102
                        ],
                        [
                            105.789371,
                            10.054654
                        ],
                        [
                            105.785918,
                            10.052975
                        ],
                        [
                            105.785782,
                            10.053021
                        ],
                        [
                            105.785766,
                            10.052797
                        ],
                        [
                            105.783399,
                            10.050183
                        ],
                        [
                            105.784416,
                            10.050915
                        ],
                        [
                            105.785857,
                            10.051901
                        ],
                        [
                            105.78648,
                            10.052289
                        ],
                        [
                            105.78648,
                            10.052528
                        ],
                        [
                            105.786745,
                            10.052712
                        ],
                        [
                            105.787909,
                            10.053029
                        ],
                        [
                            105.788006,
                            10.052998
                        ],
                        [
                            105.78819,
                            10.052792
                        ],
                        [
                            105.788461,
                            10.052255
                        ],
                        [
                            105.788684,
                            10.05219
                        ],
                        [
                            105.789213,
                            10.052508
                        ],
                        [
                            105.789317,
                            10.052535
                        ],
                        [
                            105.789393,
                            10.052483
                        ],
                        [
                            105.789461,
                            10.052485
                        ],
                        [
                            105.789516,
                            10.052426
                        ],
                        [
                            105.789562,
                            10.05242
                        ],
                        [
                            105.78995,
                            10.052634
                        ],
                        [
                            105.790127,
                            10.052604
                        ],
                        [
                            105.790291,
                            10.052367
                        ],
                        [
                            105.79035,
                            10.052161
                        ],
                        [
                            105.790609,
                            10.05087
                        ],
                        [
                            105.791622,
                            10.04873
                        ],
                        [
                            105.79272,
                            10.046369
                        ],
                        [
                            105.792906,
                            10.046216
                        ],
                        [
                            105.793625,
                            10.046298
                        ],
                        [
                            105.793923,
                            10.046249
                        ],
                        [
                            105.794122,
                            10.046176
                        ],
                        [
                            105.794229,
                            10.04607
                        ],
                        [
                            105.794337,
                            10.046053
                        ],
                        [
                            105.794394,
                            10.046083
                        ],
                        [
                            105.79443,
                            10.04608
                        ],
                        [
                            105.794476,
                            10.046057
                        ],
                        [
                            105.794784,
                            10.045715
                        ],
                        [
                            105.795289,
                            10.044924
                        ],
                        [
                            105.795298,
                            10.04484
                        ],
                        [
                            105.795275,
                            10.044569
                        ],
                        [
                            105.79555,
                            10.044023
                        ],
                        [
                            105.795744,
                            10.043299
                        ],
                        [
                            105.795929,
                            10.042357
                        ],
                        [
                            105.795929,
                            10.041857
                        ],
                        [
                            105.795904,
                            10.041649
                        ],
                        [
                            105.79578,
                            10.041418
                        ],
                        [
                            105.795582,
                            10.041283
                        ],
                        [
                            105.795036,
                            10.041198
                        ],
                        [
                            105.794838,
                            10.041064
                        ],
                        [
                            105.794677,
                            10.040807
                        ],
                        [
                            105.79485,
                            10.039989
                        ],
                        [
                            105.794813,
                            10.039697
                        ],
                        [
                            105.794664,
                            10.039452
                        ],
                        [
                            105.793673,
                            10.038513
                        ],
                        [
                            105.792235,
                            10.037463
                        ],
                        [
                            105.790509,
                            10.036196
                        ],
                        [
                            105.789888,
                            10.035585
                        ],
                        [
                            105.78873,
                            10.033549
                        ],
                        [
                            105.788177,
                            10.030102
                        ],
                        [
                            105.788029,
                            10.029553
                        ],
                        [
                            105.788103,
                            10.029316
                        ],
                        [
                            105.787546,
                            10.028017
                        ],
                        [
                            105.786933,
                            10.027084
                        ],
                        [
                            105.786264,
                            10.026335
                        ],
                        [
                            105.785057,
                            10.025676
                        ],
                        [
                            105.783033,
                            10.025274
                        ],
                        [
                            105.781436,
                            10.025109
                        ],
                        [
                            105.778817,
                            10.025109
                        ],
                        [
                            105.777777,
                            10.024963
                        ],
                        [
                            105.77644,
                            10.024744
                        ],
                        [
                            105.775678,
                            10.024341
                        ],
                        [
                            105.774898,
                            10.023847
                        ],
                        [
                            105.774229,
                            10.023061
                        ],
                        [
                            105.774322,
                            10.022768
                        ],
                        [
                            105.774007,
                            10.022512
                        ],
                        [
                            105.773338,
                            10.021141
                        ],
                        [
                            105.772948,
                            10.019586
                        ],
                        [
                            105.773134,
                            10.018214
                        ],
                        [
                            105.772929,
                            10.017702
                        ],
                        [
                            105.772391,
                            10.015398
                        ],
                        [
                            105.771276,
                            10.01291
                        ],
                        [
                            105.770051,
                            10.011319
                        ],
                        [
                            105.768881,
                            10.009856
                        ],
                        [
                            105.768175,
                            10.009252
                        ],
                        [
                            105.767525,
                            10.00874
                        ],
                        [
                            105.767005,
                            10.007862
                        ],
                        [
                            105.76628,
                            10.007533
                        ],
                        [
                            105.764702,
                            10.006838
                        ],
                        [
                            105.763699,
                            10.00682
                        ],
                        [
                            105.76134,
                            10.007478
                        ],
                        [
                            105.759615,
                            10.008242
                        ],
                        [
                            105.759225,
                            10.008543
                        ],
                        [
                            105.756081,
                            10.009612
                        ],
                        [
                            105.748846,
                            10.007201
                        ],
                        [
                            105.747649,
                            10.007064
                        ],
                        [
                            105.746508,
                            10.006324
                        ],
                        [
                            105.74565,
                            10.005759
                        ],
                        [
                            105.744112,
                            10.003855
                        ],
                        [
                            105.743064,
                            10.000018
                        ],
                        [
                            105.741868,
                            9.996922
                        ],
                        [
                            105.7412,
                            9.996072
                        ],
                        [
                            105.739558,
                            9.994674
                        ],
                        [
                            105.737666,
                            9.994126
                        ],
                        [
                            105.733965,
                            9.994373
                        ],
                        [
                            105.732601,
                            9.994647
                        ],
                        [
                            105.732089,
                            9.994837
                        ],
                        [
                            105.732172,
                            9.995733
                        ],
                        [
                            105.732147,
                            9.995864
                        ],
                        [
                            105.731518,
                            9.996035
                        ],
                        [
                            105.731386,
                            9.996222
                        ],
                        [
                            105.731187,
                            9.996752
                        ],
                        [
                            105.731096,
                            9.998984
                        ],
                        [
                            105.731116,
                            10.000388
                        ],
                        [
                            105.729311,
                            10.002465
                        ],
                        [
                            105.729095,
                            10.002535
                        ],
                        [
                            105.728716,
                            10.002543
                        ],
                        [
                            105.728541,
                            10.002606
                        ],
                        [
                            105.728319,
                            10.002881
                        ],
                        [
                            105.728089,
                            10.00297
                        ],
                        [
                            105.727566,
                            10.003014
                        ],
                        [
                            105.727449,
                            10.003085
                        ],
                        [
                            105.727355,
                            10.003317
                        ],
                        [
                            105.727213,
                            10.003446
                        ],
                        [
                            105.726889,
                            10.003546
                        ],
                        [
                            105.726747,
                            10.003845
                        ],
                        [
                            105.726778,
                            10.004444
                        ],
                        [
                            105.726687,
                            10.004663
                        ],
                        [
                            105.726413,
                            10.004813
                        ],
                        [
                            105.725978,
                            10.004763
                        ],
                        [
                            105.72379,
                            10.003616
                        ],
                        [
                            105.722342,
                            10.003207
                        ],
                        [
                            105.72216,
                            10.003287
                        ],
                        [
                            105.722099,
                            10.003456
                        ],
                        [
                            105.721957,
                            10.003506
                        ],
                        [
                            105.721613,
                            10.003476
                        ],
                        [
                            105.721269,
                            10.003686
                        ],
                        [
                            105.720914,
                            10.004065
                        ],
                        [
                            105.720631,
                            10.004164
                        ],
                        [
                            105.720287,
                            10.004154
                        ],
                        [
                            105.719983,
                            10.004015
                        ],
                        [
                            105.719345,
                            10.003566
                        ],
                        [
                            105.718573,
                            10.004839
                        ],
                        [
                            105.7186,
                            10.004969
                        ],
                        [
                            105.718843,
                            10.0051
                        ],
                        [
                            105.718921,
                            10.005252
                        ],
                        [
                            105.718954,
                            10.005491
                        ],
                        [
                            105.719327,
                            10.005989
                        ],
                        [
                            105.719939,
                            10.006568
                        ],
                        [
                            105.718574,
                            10.007806
                        ],
                        [
                            105.718318,
                            10.008108
                        ],
                        [
                            105.717937,
                            10.008727
                        ],
                        [
                            105.718241,
                            10.009079
                        ],
                        [
                            105.718742,
                            10.009258
                        ],
                        [
                            105.719166,
                            10.009677
                        ],
                        [
                            105.719227,
                            10.01005
                        ],
                        [
                            105.7195,
                            10.01023
                        ],
                        [
                            105.719819,
                            10.010573
                        ],
                        [
                            105.720183,
                            10.010633
                        ],
                        [
                            105.720228,
                            10.010962
                        ],
                        [
                            105.720714,
                            10.010917
                        ],
                        [
                            105.720904,
                            10.011066
                        ],
                        [
                            105.721116,
                            10.011029
                        ],
                        [
                            105.721784,
                            10.010521
                        ],
                        [
                            105.722542,
                            10.010274
                        ],
                        [
                            105.722823,
                            10.010005
                        ],
                        [
                            105.723263,
                            10.009751
                        ],
                        [
                            105.723695,
                            10.00934
                        ],
                        [
                            105.723938,
                            10.009378
                        ],
                        [
                            105.72406,
                            10.009677
                        ],
                        [
                            105.723953,
                            10.010297
                        ],
                        [
                            105.724318,
                            10.010625
                        ],
                        [
                            105.7245,
                            10.010969
                        ],
                        [
                            105.724697,
                            10.010947
                        ],
                        [
                            105.725107,
                            10.01014
                        ],
                        [
                            105.725762,
                            10.009645
                        ],
                        [
                            105.726085,
                            10.009779
                        ],
                        [
                            105.72629,
                            10.010081
                        ],
                        [
                            105.726743,
                            10.010358
                        ],
                        [
                            105.727133,
                            10.011213
                        ],
                        [
                            105.727443,
                            10.011292
                        ],
                        [
                            105.727778,
                            10.011054
                        ],
                        [
                            105.727428,
                            10.010231
                        ],
                        [
                            105.727583,
                            10.009988
                        ],
                        [
                            105.727897,
                            10.009919
                        ],
                        [
                            105.728353,
                            10.010113
                        ],
                        [
                            105.728834,
                            10.009796
                        ],
                        [
                            105.729073,
                            10.009952
                        ],
                        [
                            105.729084,
                            10.010333
                        ],
                        [
                            105.729777,
                            10.010523
                        ],
                        [
                            105.730289,
                            10.01049
                        ],
                        [
                            105.730073,
                            10.011788
                        ],
                        [
                            105.7308,
                            10.012269
                        ],
                        [
                            105.731452,
                            10.011997
                        ],
                        [
                            105.732224,
                            10.009842
                        ],
                        [
                            105.732891,
                            10.009985
                        ],
                        [
                            105.733641,
                            10.010252
                        ],
                        [
                            105.733746,
                            10.01134
                        ],
                        [
                            105.73189,
                            10.013373
                        ],
                        [
                            105.732203,
                            10.013824
                        ],
                        [
                            105.732605,
                            10.013865
                        ],
                        [
                            105.732976,
                            10.014066
                        ],
                        [
                            105.733228,
                            10.014222
                        ],
                        [
                            105.7343,
                            10.014795
                        ],
                        [
                            105.734151,
                            10.015246
                        ],
                        [
                            105.734279,
                            10.015597
                        ],
                        [
                            105.734181,
                            10.01586
                        ],
                        [
                            105.733639,
                            10.015641
                        ],
                        [
                            105.73343,
                            10.016203
                        ],
                        [
                            105.734446,
                            10.017422
                        ],
                        [
                            105.739515,
                            10.019117
                        ],
                        [
                            105.740077,
                            10.019243
                        ],
                        [
                            105.741149,
                            10.022359
                        ],
                        [
                            105.741557,
                            10.023037
                        ],
                        [
                            105.742552,
                            10.028138
                        ],
                        [
                            105.743394,
                            10.032259
                        ],
                        [
                            105.74393,
                            10.032485
                        ],
                        [
                            105.747809,
                            10.03839
                        ],
                        [
                            105.752504,
                            10.04633
                        ],
                        [
                            105.752706,
                            10.046267
                        ]
                    ]
                ]
            }
        }
    ]
}